[{"OBJECT_NAME":"STARLINK-2171","OBJECT_ID":"2021-017AJ","EPOCH":"2026-03-10T00:00:02.999808","MEAN_MOTION":15.70905931,"ECCENTRICITY":0.0002371,"INCLINATION":53.0436,"RA_OF_ASC_NODE":167.0252,"ARG_OF_PERICENTER":165.5816,"MEAN_ANOMALY":179.0332,"EPHEMERIS_TYPE":0,"CLASSIFICATION_TYPE":"U","NORAD_CAT_ID":47754,"ELEMENT_SET_NO":999,"REV_AT_EPOCH":590,"BSTAR":0.00011207161,"MEAN_MOTION_DOT":0.00013697,"MEAN_MOTION_DDOT":0},{"OBJECT_NAME":"STARLINK-11386 [DTC]","OBJECT_ID":"2024-220L","EPOCH":"2026-03-09T22:05:56.061600","MEAN_MOTION":15.70963269,"ECCENTRICITY":0.00012458,"INCLINATION":42.9994,"RA_OF_ASC_NODE":41.3104,"ARG_OF_PERICENTER":248.6476,"MEAN_ANOMALY":111.4258,"EPHEMERIS_TYPE":0,"CLASSIFICATION_TYPE":"U","NORAD_CAT_ID":62098,"ELEMENT_SET_NO":999,"REV_AT_EPOCH":7499,"BSTAR":0.0017104075,"MEAN_MOTION_DOT":0.00226267,"MEAN_MOTION_DDOT":0}]
